PROBA-1                 
1 26958U 01049B   26197.27470953  .00001404  00000+0  93619-4 0  9996
2 26958  97.9599 206.8249 0055710  26.2787 334.1247 15.07619483348004
CUTE-1 (CO-55)          
1 27844U 03031E   26196.97918347  .00000131  00000+0  75469-4 0  9993
2 27844  98.6744 205.1765 0010840 100.6537 259.5863 14.24351837195771
CUBESAT XI-IV (CO-57)   
1 27848U 03031J   26196.98211364  .00000105  00000+0  65012-4 0  9997
2 27848  98.6774 204.8688 0010566 117.3488 242.8767 14.23634777195474
APRIZESAT 4             
1 35684U 09041D   26197.18494482  .00000333  00000+0  46573-4 0  9992
2 35684  98.1404 273.0822 0042291 226.2484 133.5226 14.83914429915668
APRIZESAT 3             
1 35686U 09041F   26196.98810491  .00000765  00000+0  71213-4 0  9991
2 35686  98.2102 351.5983 0060765 333.2852  26.5241 14.96312357920682
PROBA-2                 
1 36037U 09059B   26197.26366976  .00000054  00000+0  23065-4 0  9990
2 36037  98.2459  20.2148 0013082 185.3759 174.7300 14.54873855885752
APRIZESAT 5             
1 37792U 11044E   26197.05704850  .00000384  00000+0  55965-4 0  9990
2 37792  98.2449 130.9171 0050685 269.8503  89.6900 14.81128340803066
APRIZESAT 6             
1 37793U 11044F   26197.22222378  .00000333  00000+0  54624-4 0  9995
2 37793  98.2337 108.3122 0042971 354.9864 126.5502 14.76957574801434
PROBA-V                 
1 39159U 13021A   26196.93582777  .00000014  00000+0  24298-4 0  9999
2 39159  98.3606 174.1262 0005231  58.2568 301.9121 14.23603473685200
APRIZESAT 7             
1 39416U 13066A   26197.13427305  .00000553  00000+0  60072-4 0  9990
2 39416  97.7723 149.9413 0037264 114.3183 246.1934 14.91620251685542
APRIZESAT 8             
1 39425U 13066K   26197.26520000  .00000351  00000+0  44048-4 0  9991
2 39425  97.8230 144.3303 0045582 188.3393 171.7071 14.87697277683998
BUGSAT-1 (TITA)         
1 40014U 14033E   26197.28114001  .00004418  00000+0  23233-3 0  9994
2 40014  98.0434 291.5373 0028927  82.3655 278.0860 15.15888938660241
SAUDISAT 4              
1 40016U 14033G   26197.13152493  .00000212  00000+0  34846-4 0  9998
2 40016  97.7619 342.2713 0044177 340.9956  18.9605 14.79576020650352
APRIZESAT 9             
1 40018U 14033J   26197.18951335  .00000301  00000+0  51525-4 0  9999
2 40018  97.9096 329.6847 0067463 106.8088 254.0536 14.74253278647837
APRIZESAT 10            
1 40019U 14033K   26196.90212779  .00000283  00000+0  52285-4 0  9994
2 40019  97.9682 323.2262 0078788 181.0864 179.0184 14.70911386646470
TECHDEMOSAT-1 (TDS-1)   
1 40076U 14037H   26196.98373772  .00004007  00000+0  22692-3 0  9996
2 40076  98.3826 192.0617 0006976 156.1442 204.0112 15.13686242652586
TECHNOSAT               
1 42829U 17042E   26197.03733352  .00001602  00000+0  11643-3 0  9996
2 42829  97.4318 353.6046 0017351   0.8155 359.3098 15.05114054491043
FLYING LAPTOP           
1 42831U 17042G   26197.31311774  .00001786  00000+0  14276-3 0  9998
2 42831  97.4809 351.7505 0019645  28.9665 331.2646 15.01316774490827
HAWK-A                  
1 43765U 18099H   26197.09145057  .00003930  00000+0  15791-3 0  9998
2 43765  97.3893 248.9541 0034796 180.7785 179.3404 15.24971821417509
HAWK-B                  
1 43794U 18099AN  26197.14770715  .00003202  00000+0  13691-3 0  9990
2 43794  97.3944 248.3633 0031483 198.6833 161.3251 15.23121029417446
HAWK-C                  
1 43799U 18099AT  26197.26386185  .00004410  00000+0  15798-3 0  9994
2 43799  97.3872 250.1810 0040424 180.0507 180.0736 15.28500096418354
SALSAT                  
1 46495U 20068K   26197.24901140  .00003822  00000+0  13369-3 0  9999
2 46495  97.8856 202.0925 0009321 188.9749 171.1325 15.30180346319806
HAWK-2C                 
1 47502U 21006CT  26197.16444805  .00003456  00000+0  10400-3 0  9999
2 47502  97.2262 240.9001 0008670  98.1007 262.1221 15.34995811303941
HAWK-2A                 
1 47505U 21006CW  26197.16665786  .00004634  00000+0  13860-3 0  9997
2 47505  97.2304 241.5969 0008218 101.3926 258.8242 15.35017065303948
HAWK-2B                 
1 47508U 21006CZ  26197.09491835  .00004223  00000+0  12599-3 0  9996
2 47508  97.2175 239.8131 0008770 100.1637 260.0596 15.35143831303934
HAWK-3B                 
1 48931U 21059BE  26197.11878249  .00027283  00000+0  21047-3 0  9995
2 48931  97.6632  36.6148 0004585 194.7801 165.3329 15.71923124282398
HAWK-3C                 
1 48948U 21059BX  26197.11846658  .00030746  00000+0  23694-3 0  9990
2 48948  97.6746  42.3495 0004748 195.4013 164.7105 15.71924167282398
HAWK-3A                 
1 48957U 21059CG  26197.11835333  .00027941  00000+0  21549-3 0  9998
2 48957  97.6690  39.5308 0004740 197.5833 162.5266 15.71924465282397
HAWK-5C                 
1 52754U 22057Y   26196.93102428  .00011472  00000+0  19006-3 0  9995
2 52754  97.6616 358.4771 0002731 343.5481  16.5682 15.52341704230809
HAWK-5B                 
1 52756U 22057AA  26197.25314605  .00010179  00000+0  16883-3 0  9998
2 52756  97.6630 357.1743 0003368 327.6499  32.4546 15.52344390230856
