OBJECT_NAME,OBJECT_ID,EPOCH,MEAN_MOTION,ECCENTRICITY,INCLINATION,RA_OF_ASC_NODE,ARG_OF_PERICENTER,MEAN_ANOMALY,EPHEMERIS_TYPE,CLASSIFICATION_TYPE,NORAD_CAT_ID,ELEMENT_SET_NO,REV_AT_EPOCH,BSTAR,MEAN_MOTION_DOT,MEAN_MOTION_DDOT
PROBA-1,2001-049B,2026-07-16T06:35:34.903392,15.07619483,.00557109,97.9599,206.8249,26.2787,334.1247,0,U,26958,999,34800,.93619487E-4,.1404E-4,0
CUTE-1 (CO-55),2003-031E,2026-07-15T23:30:01.451808,14.24351837,.00108408,98.6744,205.1765,100.6537,259.5863,0,U,27844,999,19577,.75468608E-4,.131E-5,0
CUBESAT XI-IV (CO-57),2003-031J,2026-07-15T23:34:14.618496,14.23634777,.00105663,98.6774,204.8688,117.3488,242.8767,0,U,27848,999,19547,.65012077E-4,.105E-5,0
APRIZESAT 4,2009-041D,2026-07-16T04:26:19.232448,14.83914429,.00422912,98.1404,273.0822,226.2484,133.5226,0,U,35684,999,91566,.46573021E-4,.333E-5,0
APRIZESAT 3,2009-041F,2026-07-15T23:42:52.264224,14.96312357,.00607654,98.2102,351.5983,333.2852,26.5241,0,U,35686,999,92068,.71213158E-4,.765E-5,0
PROBA-2,2009-059B,2026-07-16T06:19:41.067264,14.54873855,.00130827,98.2459,20.2148,185.3759,174.7300,0,U,36037,999,88575,.23065066E-4,.54E-6,0
APRIZESAT 5,2011-044E,2026-07-16T01:22:08.990400,14.81128340,.00506856,98.2449,130.9171,269.8503,89.6900,0,U,37792,999,80306,.55965488E-4,.384E-5,0
APRIZESAT 6,2011-044F,2026-07-16T05:20:00.134592,14.76957574,.0042971,98.2337,108.3122,354.9864,126.5502,0,U,37793,999,80143,.54624293E-4,.333E-5,0
PROBA-V,2013-021A,2026-07-15T22:27:35.519328,14.23603473,.0005231,98.3606,174.1262,58.2568,301.9121,0,U,39159,999,68520,.24298E-4,.14E-6,0
APRIZESAT 7,2013-066A,2026-07-16T03:13:21.191520,14.91620251,.00372648,97.7723,149.9413,114.3183,246.1934,0,U,39416,999,68554,.60071535E-4,.553E-5,0
APRIZESAT 8,2013-066K,2026-07-16T06:21:53.280000,14.87697277,.00455827,97.8230,144.3303,188.3393,171.7071,0,U,39425,999,68399,.44048434E-4,.351E-5,0
BUGSAT-1 (TITA),2014-033E,2026-07-16T06:44:50.496864,15.15888938,.00289279,98.0434,291.5373,82.3655,278.0860,0,U,40014,999,66024,.23232784E-3,.4418E-4,0
SAUDISAT 4,2014-033G,2026-07-16T03:09:23.753952,14.79576020,.00441772,97.7619,342.2713,340.9956,18.9605,0,U,40016,999,65035,.34846362E-4,.212E-5,0
APRIZESAT 9,2014-033J,2026-07-16T04:32:53.953440,14.74253278,.00674635,97.9096,329.6847,106.8088,254.0536,0,U,40018,999,64783,.51525424E-4,.301E-5,0
APRIZESAT 10,2014-033K,2026-07-15T21:39:03.841056,14.70911386,.0078788,97.9682,323.2262,181.0864,179.0184,0,U,40019,999,64647,.52285E-4,.283E-5,0
TECHDEMOSAT-1 (TDS-1),2014-037H,2026-07-15T23:36:34.939008,15.13686242,.00069762,98.3826,192.0617,156.1442,204.0112,0,U,40076,999,65258,.22692376E-3,.4007E-4,0
TECHNOSAT,2017-042E,2026-07-16T00:53:45.616128,15.05114054,.00173513,97.4318,353.6046,0.8155,359.3098,0,U,42829,999,49104,.11642774E-3,.1602E-4,0
FLYING LAPTOP,2017-042G,2026-07-16T07:30:53.372736,15.01316774,.00196455,97.4809,351.7505,28.9665,331.2646,0,U,42831,999,49082,.1427554E-3,.1786E-4,0
HAWK-A,2018-099H,2026-07-16T02:11:41.329248,15.24971821,.0034796,97.3893,248.9541,180.7785,179.3404,0,U,43765,999,41750,.15790699E-3,.393E-4,0
HAWK-B,2018-099AN,2026-07-16T03:32:41.897760,15.23121029,.0031483,97.3944,248.3633,198.6833,161.3251,0,U,43794,999,41744,.13691158E-3,.3202E-4,0
HAWK-C,2018-099AT,2026-07-16T06:19:57.663840,15.28500096,.00404248,97.3872,250.1810,180.0507,180.0736,0,U,43799,999,41835,.15797678E-3,.441E-4,0
SALSAT,2020-068K,2026-07-16T05:58:34.584960,15.30180346,.00093214,97.8856,202.0925,188.9749,171.1325,0,U,46495,999,31980,.1336874E-3,.3822E-4,0
HAWK-2C,2021-006CT,2026-07-16T03:56:48.311520,15.34995811,.00086708,97.2262,240.9001,98.1007,262.1221,0,U,47502,999,30394,.1039955E-3,.3456E-4,0
HAWK-2A,2021-006CW,2026-07-16T03:59:59.239104,15.35017065,.00082184,97.2304,241.5969,101.3926,258.8242,0,U,47505,999,30394,.13860224E-3,.4634E-4,0
HAWK-2B,2021-006CZ,2026-07-16T02:16:40.945440,15.35143831,.00087702,97.2175,239.8131,100.1637,260.0596,0,U,47508,999,30393,.12599334E-3,.4223E-4,0
HAWK-3B,2021-059BE,2026-07-16T02:51:02.807136,15.71923124,.00045858,97.6632,36.6148,194.7801,165.3329,0,U,48931,999,28239,.21047482E-3,.27283E-3,0
HAWK-3C,2021-059BX,2026-07-16T02:50:35.512512,15.71924167,.00047486,97.6746,42.3495,195.4013,164.7105,0,U,48948,999,28239,.23694264E-3,.30746E-3,0
HAWK-3A,2021-059CG,2026-07-16T02:50:25.727712,15.71924465,.00047401,97.6690,39.5308,197.5833,162.5266,0,U,48957,999,28239,.21549025E-3,.27941E-3,0
HAWK-5C,2022-057Y,2026-07-15T22:20:40.497792,15.52341704,.0002731,97.6616,358.4771,343.5481,16.5682,0,U,52754,999,23080,.19006E-3,.11472E-3,0
HAWK-5B,2022-057AA,2026-07-16T06:04:31.818720,15.52344390,.00033681,97.6630,357.1743,327.6499,32.4546,0,U,52756,999,23085,.16882581E-3,.10179E-3,0
